{"type": "FeatureCollection", "features": [ {"type": "Feature", "properties": {"norad_id": 34546, "name": "COSMOS 2251 DEB", "group": "cosmos-2251-debris", "lat": -51.996779804001044, "lon": 100.79939443897604, "alt_km": 749.6820784940437, "timestamp": "2025-12-07T07:31:36.692484+00:00", "meta": {"OBJECT_NAME": "COSMOS 2251 DEB", "OBJECT_ID": "1993-036UG", "EPOCH": "2025-12-06T22:41:13.908768", "MEAN_MOTION": 14.45370598, "ECCENTRICITY": 0.00217879, "INCLINATION": 74.0317, "RA_OF_ASC_NODE": 259.9891, "ARG_OF_PERICENTER": 334.3342, "MEAN_ANOMALY": 145.1769, "EPHEMERIS_TYPE": 0, "CLASSIFICATION_TYPE": "U", "NORAD_CAT_ID": 34546, "ELEMENT_SET_NO": 999, "REV_AT_EPOCH": 87942, "BSTAR": 0.0011696247, "MEAN_MOTION_DOT": 4.1e-05, "MEAN_MOTION_DDOT": 0}, "tle": {"line1": "1 34546U 93036UG  25340.94529987  .00004100  00000+0  11696-2 0  9999", "line2": "2 34546  74.0317 259.9891 0021787 334.3342 145.1769 14.45370598879425"}}, "geometry": {"type": "Point", "coordinates": [100.79939443897604, -51.996779804001044]}}, {"type": "Feature", "properties": {"norad_id": 34547, "name": "COSMOS 2251 DEB", "group": "cosmos-2251-debris", "lat": -71.3357615504908, "lon": -10.747450478790807, "alt_km": 656.5667577234981, "timestamp": "2025-12-07T07:31:36.692495+00:00", "meta": {"OBJECT_NAME": "COSMOS 2251 DEB", "OBJECT_ID": "1993-036UH", "EPOCH": "2025-12-06T15:40:13.304064", "MEAN_MOTION": 14.72101295, "ECCENTRICITY": 0.00182423, "INCLINATION": 74.0308, "RA_OF_ASC_NODE": 112.5708, "ARG_OF_PERICENTER": 192.7343, "MEAN_ANOMALY": 167.3371, "EPHEMERIS_TYPE": 0, "CLASSIFICATION_TYPE": "U", "NORAD_CAT_ID": 34547, "ELEMENT_SET_NO": 999, "REV_AT_EPOCH": 88432, "BSTAR": 0.0038834839, "MEAN_MOTION_DOT": 0.00024558, "MEAN_MOTION_DDOT": 0}, "tle": {"line1": "1 34547U 93036UH  25340.65293176  .00024558  00000+0  38835-2 0  9999", "line2": "2 34547  74.0308 112.5708 0018242 192.7343 167.3371 14.72101295884322"}}, "geometry": {"type": "Point", "coordinates": [-10.747450478790807, -71.3357615504908]}}, {"type": "Feature", "properties": {"norad_id": 34553, "name": "COSMOS 2251 DEB", "group": "cosmos-2251-debris", "lat": 71.45687319108029, "lon": -99.13174411791292, "alt_km": 706.5982589996729, "timestamp": "2025-12-07T07:31:36.692505+00:00", "meta": {"OBJECT_NAME": "COSMOS 2251 DEB", "OBJECT_ID": "1993-036UP", "EPOCH": "2025-12-06T18:32:08.314080", "MEAN_MOTION": 14.57640528, "ECCENTRICITY": 0.00195783, "INCLINATION": 74.0243, "RA_OF_ASC_NODE": 203.2429, "ARG_OF_PERICENTER": 281.0089, "MEAN_ANOMALY": 200.0882, "EPHEMERIS_TYPE": 0, "CLASSIFICATION_TYPE": "U", "NORAD_CAT_ID": 34553, "ELEMENT_SET_NO": 999, "REV_AT_EPOCH": 88009, "BSTAR": 0.0019356838, "MEAN_MOTION_DOT": 8.83e-05, "MEAN_MOTION_DDOT": 0}, "tle": {"line1": "1 34553U 93036UP  25340.77231845  .00008830  00000+0  19357-2 0  9997", "line2": "2 34553  74.0243 203.2429 0019578 281.0089 200.0882 14.57640528880099"}}, "geometry": {"type": "Point", "coordinates": [-99.13174411791292, 71.45687319108029]}}, {"type": "Feature", "properties": {"norad_id": 34554, "name": "COSMOS 2251 DEB", "group": "cosmos-2251-debris", "lat": -30.528964045175808, "lon": 138.70181035704675, "alt_km": 786.2629286807232, "timestamp": "2025-12-07T07:31:36.692515+00:00", "meta": {"OBJECT_NAME": "COSMOS 2251 DEB", "OBJECT_ID": "1993-036UQ", "EPOCH": "2025-12-04T23:42:19.325952", "MEAN_MOTION": 14.37912452, "ECCENTRICITY": 0.0022634, "INCLINATION": 74.0382, "RA_OF_ASC_NODE": 313.2655, "ARG_OF_PERICENTER": 17.4579, "MEAN_ANOMALY": 39.2705, "EPHEMERIS_TYPE": 0, "CLASSIFICATION_TYPE": "U", "NORAD_CAT_ID": 34554, "ELEMENT_SET_NO": 999, "REV_AT_EPOCH": 87644, "BSTAR": 0.0006467, "MEAN_MOTION_DOT": 1.933e-05, "MEAN_MOTION_DDOT": 0}, "tle": {"line1": "1 34554U 93036UQ  25338.98772368  .00001933  00000+0  64670-3 0  9994", "line2": "2 34554  74.0382 313.2655 0022634  17.4579  39.2705 14.37912452876445"}}, "geometry": {"type": "Point", "coordinates": [138.70181035704675, -30.528964045175808]}}, {"type": "Feature", "properties": {"norad_id": 34556, "name": "COSMOS 2251 DEB", "group": "cosmos-2251-debris", "lat": -42.89789935764574, "lon": 120.07069183489956, "alt_km": 646.4329405407616, "timestamp": "2025-12-07T07:31:36.692525+00:00", "meta": {"OBJECT_NAME": "COSMOS 2251 DEB", "OBJECT_ID": "1993-036US", "EPOCH": "2025-12-06T20:53:58.479072", "MEAN_MOTION": 14.7751401, "ECCENTRICITY": 0.00086313, "INCLINATION": 74.0157, "RA_OF_ASC_NODE": 136.387, "ARG_OF_PERICENTER": 195.878, "MEAN_ANOMALY": 284.7122, "EPHEMERIS_TYPE": 0, "CLASSIFICATION_TYPE": "U", "NORAD_CAT_ID": 34556, "ELEMENT_SET_NO": 999, "REV_AT_EPOCH": 88242, "BSTAR": 0.0041617792, "MEAN_MOTION_DOT": 0.00029811, "MEAN_MOTION_DDOT": 0}, "tle": {"line1": "1 34556U 93036US  25340.87081573  .00029811  00000+0  41618-2 0  9999", "line2": "2 34556  74.0157 136.3870 0008631 195.8780 284.7122 14.77514010882423"}}, "geometry": {"type": "Point", "coordinates": [120.07069183489956, -42.89789935764574]}}, {"type": "Feature", "properties": {"norad_id": 34560, "name": "COSMOS 2251 DEB", "group": "cosmos-2251-debris", "lat": -39.4745603928955, "lon": 139.0446828152808, "alt_km": 660.2096179693208, "timestamp": "2025-12-07T07:31:36.692536+00:00", "meta": {"OBJECT_NAME": "COSMOS 2251 DEB", "OBJECT_ID": "1993-036UW", "EPOCH": "2025-12-05T18:15:09.650304", "MEAN_MOTION": 14.71848761, "ECCENTRICITY": 0.00152187, "INCLINATION": 74.0158, "RA_OF_ASC_NODE": 155.7221, "ARG_OF_PERICENTER": 236.6913, "MEAN_ANOMALY": 135.7434, "EPHEMERIS_TYPE": 0, "CLASSIFICATION_TYPE": "U", "NORAD_CAT_ID": 34560, "ELEMENT_SET_NO": 999, "REV_AT_EPOCH": 88149, "BSTAR": 0.0037712821, "MEAN_MOTION_DOT": 0.00023688, "MEAN_MOTION_DDOT": 0}, "tle": {"line1": "1 34560U 93036UW  25339.76052836  .00023688  00000+0  37713-2 0  9997", "line2": "2 34560  74.0158 155.7221 0015218 236.6913 135.7434 14.71848761881499"}}, "geometry": {"type": "Point", "coordinates": [139.0446828152808, -39.4745603928955]}}, {"type": "Feature", "properties": {"norad_id": 34563, "name": "COSMOS 2251 DEB", "group": "cosmos-2251-debris", "lat": -39.662712930793994, "lon": 47.56584860601699, "alt_km": 742.6611256471178, "timestamp": "2025-12-07T07:31:36.692546+00:00", "meta": {"OBJECT_NAME": "COSMOS 2251 DEB", "OBJECT_ID": "1993-036UZ", "EPOCH": "2025-12-06T22:17:25.268352", "MEAN_MOTION": 14.46482528, "ECCENTRICITY": 0.00138331, "INCLINATION": 74.0381, "RA_OF_ASC_NODE": 214.5566, "ARG_OF_PERICENTER": 308.7117, "MEAN_ANOMALY": 69.6972, "EPHEMERIS_TYPE": 0, "CLASSIFICATION_TYPE": "U", "NORAD_CAT_ID": 34563, "ELEMENT_SET_NO": 999, "REV_AT_EPOCH": 88113, "BSTAR": 0.00082885823, "MEAN_MOTION_DOT": 2.96e-05, "MEAN_MOTION_DDOT": 0}, "tle": {"line1": "1 34563U 93036UZ  25340.92876468  .00002960  00000+0  82886-3 0  9997", "line2": "2 34563  74.0381 214.5566 0013833 308.7117  69.6972 14.46482528881134"}}, "geometry": {"type": "Point", "coordinates": [47.56584860601699, -39.662712930793994]}}, {"type": "Feature", "properties": {"norad_id": 34564, "name": "COSMOS 2251 DEB", "group": "cosmos-2251-debris", "lat": 61.26309427405971, "lon": 36.57308319268427, "alt_km": 756.8869413273496, "timestamp": "2025-12-07T07:31:36.692556+00:00", "meta": {"OBJECT_NAME": "COSMOS 2251 DEB", "OBJECT_ID": "1993-036VA", "EPOCH": "2025-12-06T21:33:02.255328", "MEAN_MOTION": 14.40674126, "ECCENTRICITY": 0.00187888, "INCLINATION": 74.0328, "RA_OF_ASC_NODE": 248.8191, "ARG_OF_PERICENTER": 353.8102, "MEAN_ANOMALY": 125.1644, "EPHEMERIS_TYPE": 0, "CLASSIFICATION_TYPE": "U", "NORAD_CAT_ID": 34564, "ELEMENT_SET_NO": 999, "REV_AT_EPOCH": 87922, "BSTAR": 0.00046991367, "MEAN_MOTION_DOT": 1.477e-05, "MEAN_MOTION_DDOT": 0}, "tle": {"line1": "1 34564U 93036VA  25340.89794277  .00001477  00000+0  46991-3 0  9990", "line2": "2 34564  74.0328 248.8191 0018788 353.8102 125.1644 14.40674126879221"}}, "geometry": {"type": "Point", "coordinates": [36.57308319268427, 61.26309427405971]}}, {"type": "Feature", "properties": {"norad_id": 34567, "name": "COSMOS 2251 DEB", "group": "cosmos-2251-debris", "lat": 52.2613165349123, "lon": -35.1540057087172, "alt_km": 830.9339128016863, "timestamp": "2025-12-07T07:31:36.692566+00:00", "meta": {"OBJECT_NAME": "COSMOS 2251 DEB", "OBJECT_ID": "1993-036VD", "EPOCH": "2025-12-06T23:13:45.554304", "MEAN_MOTION": 14.24007121, "ECCENTRICITY": 0.00745961, "INCLINATION": 74.0399, "RA_OF_ASC_NODE": 167.1683, "ARG_OF_PERICENTER": 242.661, "MEAN_ANOMALY": 271.0407, "EPHEMERIS_TYPE": 0, "CLASSIFICATION_TYPE": "U", "NORAD_CAT_ID": 34567, "ELEMENT_SET_NO": 999, "REV_AT_EPOCH": 87042, "BSTAR": 0.00033214357, "MEAN_MOTION_DOT": 7.59e-06, "MEAN_MOTION_DDOT": 0}, "tle": {"line1": "1 34567U 93036VD  25340.96788836  .00000759  00000+0  33214-3 0  9991", "line2": "2 34567  74.0399 167.1683 0074596 242.6610 271.0407 14.24007121870427"}}, "geometry": {"type": "Point", "coordinates": [-35.1540057087172, 52.2613165349123]}}, {"type": "Feature", "properties": {"norad_id": 34569, "name": "COSMOS 2251 DEB", "group": "cosmos-2251-debris", "lat": -72.99779686828656, "lon": 138.07513916995313, "alt_km": 874.5520966430886, "timestamp": "2025-12-07T07:31:36.692576+00:00", "meta": {"OBJECT_NAME": "COSMOS 2251 DEB", "OBJECT_ID": "1993-036VF", "EPOCH": "2025-12-06T18:58:49.350144", "MEAN_MOTION": 14.24728561, "ECCENTRICITY": 0.01570318, "INCLINATION": 73.991, "RA_OF_ASC_NODE": 208.8926, "ARG_OF_PERICENTER": 38.6556, "MEAN_ANOMALY": 78.4317, "EPHEMERIS_TYPE": 0, "CLASSIFICATION_TYPE": "U", "NORAD_CAT_ID": 34569, "ELEMENT_SET_NO": 999, "REV_AT_EPOCH": 86883, "BSTAR": 0.0010304998, "MEAN_MOTION_DOT": 2.703e-05, "MEAN_MOTION_DDOT": 0}, "tle": {"line1": "1 34569U 93036VF  25340.79084896  .00002703  00000+0  10305-2 0  9995", "line2": "2 34569  73.9910 208.8926 0157031  38.6556  78.4317 14.24728561868836"}}, "geometry": {"type": "Point", "coordinates": [138.07513916995313, -72.99779686828656]}}]}